{
  "type": "FeatureCollection",
  "features": [
    {
      "type": "Feature",
      "properties": {
        "norad_id": 38481,
        "name": "COSMOS 2251 DEB",
        "group": "cosmos-2251-debris",
        "lat": -20.341705305465425,
        "lon": -171.29087529937192,
        "alt_km": 945.6045148931271,
        "timestamp": "2025-12-15T14:57:58.209690+00:00",
        "meta_object_name": "COSMOS 2251 DEB",
        "meta_object_id": "1993-036BTR",
        "meta_epoch": "2025-12-11T08:25:34.899168",
        "meta_mean_motion": 13.94814903,
        "meta_eccentricity": 0.02344672,
        "meta_inclination": 73.9331,
        "meta_ra_of_asc_node": 9.956,
        "meta_arg_of_pericenter": 310.478,
        "meta_mean_anomaly": 47.6118,
        "meta_ephemeris_type": 0,
        "meta_classification_type": "U",
        "meta_norad_cat_id": 38481,
        "meta_element_set_no": 999,
        "meta_rev_at_epoch": 59041,
        "meta_bstar": 0.0026201501,
        "meta_mean_motion_dot": 4.395e-05,
        "meta_mean_motion_ddot": 0,
        "tle_line1": "1 38481U 93036BTR 25345.35109837  .00004395  00000+0  26202-2 0  9994",
        "tle_line2": "2 38481  73.9331   9.9560 0234467 310.4780  47.6118 13.94814903590418"
      },
      "geometry": {
        "type": "Point",
        "coordinates": [
          -171.29087529937192,
          -20.341705305465425
        ]
      }
    },
    {
      "type": "Feature",
      "properties": {
        "norad_id": 38483,
        "name": "COSMOS 2251 DEB",
        "group": "cosmos-2251-debris",
        "lat": -58.05917365283095,
        "lon": -20.305308123893493,
        "alt_km": 881.3393609354289,
        "timestamp": "2025-12-15T14:57:58.209699+00:00",
        "meta_object_name": "COSMOS 2251 DEB",
        "meta_object_id": "1993-036BTT",
        "meta_epoch": "2025-12-12T08:16:48.530496",
        "meta_mean_motion": 14.28787654,
        "meta_eccentricity": 0.01107994,
        "meta_inclination": 74.262,
        "meta_ra_of_asc_node": 12.4521,
        "meta_arg_of_pericenter": 118.0167,
        "meta_mean_anomaly": 243.2246,
        "meta_ephemeris_type": 0,
        "meta_classification_type": "U",
        "meta_norad_cat_id": 38483,
        "meta_element_set_no": 999,
        "meta_rev_at_epoch": 63472,
        "meta_bstar": 0.0012977102,
        "meta_mean_motion_dot": 3.471e-05,
        "meta_mean_motion_ddot": 0,
        "tle_line1": "1 38483U 93036BTT 25346.34500614  .00003471  00000+0  12977-2 0  9992",
        "tle_line2": "2 38483  74.2620  12.4521 0110799 118.0167 243.2246 14.28787654634722"
      },
      "geometry": {
        "type": "Point",
        "coordinates": [
          -20.305308123893493,
          -58.05917365283095
        ]
      }
    },
    {
      "type": "Feature",
      "properties": {
        "norad_id": 38486,
        "name": "COSMOS 2251 DEB",
        "group": "cosmos-2251-debris",
        "lat": 20.251486761355434,
        "lon": -154.6945747964189,
        "alt_km": 633.345796345403,
        "timestamp": "2025-12-15T14:57:58.209708+00:00",
        "meta_object_name": "COSMOS 2251 DEB",
        "meta_object_id": "1993-036BTW",
        "meta_epoch": "2025-12-14T08:43:16.817376",
        "meta_mean_motion": 14.73317924,
        "meta_eccentricity": 0.00302546,
        "meta_inclination": 73.9417,
        "meta_ra_of_asc_node": 201.6743,
        "meta_arg_of_pericenter": 345.7172,
        "meta_mean_anomaly": 193.9267,
        "meta_ephemeris_type": 0,
        "meta_classification_type": "U",
        "meta_norad_cat_id": 38486,
        "meta_element_set_no": 999,
        "meta_rev_at_epoch": 75458,
        "meta_bstar": 0.0022812423,
        "meta_mean_motion_dot": 0.00014869,
        "meta_mean_motion_ddot": 0,
        "tle_line1": "1 38486U 93036BTW 25348.36338909  .00014869  00000+0  22812-2 0  9997",
        "tle_line2": "2 38486  73.9417 201.6743 0030254 345.7172 193.9267 14.73317924754585"
      },
      "geometry": {
        "type": "Point",
        "coordinates": [
          -154.6945747964189,
          20.251486761355434
        ]
      }
    },
    {
      "type": "Feature",
      "properties": {
        "norad_id": 38487,
        "name": "COSMOS 2251 DEB",
        "group": "cosmos-2251-debris",
        "lat": -69.17258972883863,
        "lon": -103.15032677823339,
        "alt_km": 511.9298340221476,
        "timestamp": "2025-12-15T14:57:58.209717+00:00",
        "meta_object_name": "COSMOS 2251 DEB",
        "meta_object_id": "1993-036BTX",
        "meta_epoch": "2025-12-14T09:21:38.424384",
        "meta_mean_motion": 15.17499281,
        "meta_eccentricity": 0.00213487,
        "meta_inclination": 73.9755,
        "meta_ra_of_asc_node": 30.3633,
        "meta_arg_of_pericenter": 202.5795,
        "meta_mean_anomaly": 157.4464,
        "meta_ephemeris_type": 0,
        "meta_classification_type": "U",
        "meta_norad_cat_id": 38487,
        "meta_element_set_no": 999,
        "meta_rev_at_epoch": 66825,
        "meta_bstar": 0.0020388664,
        "meta_mean_motion_dot": 0.00041311,
        "meta_mean_motion_ddot": 0,
        "tle_line1": "1 38487U 93036BTX 25348.39002806  .00041311  00000+0  20389-2 0  9994",
        "tle_line2": "2 38487  73.9755  30.3633 0021348 202.5795 157.4464 15.17499281668259"
      },
      "geometry": {
        "type": "Point",
        "coordinates": [
          -103.15032677823339,
          -69.17258972883863
        ]
      }
    },
    {
      "type": "Feature",
      "properties": {
        "norad_id": 39109,
        "name": "COSMOS 2251 DEB",
        "group": "cosmos-2251-debris",
        "lat": 50.49427650341225,
        "lon": -120.20736251456768,
        "alt_km": 654.4460329147232,
        "timestamp": "2025-12-15T14:57:58.209727+00:00",
        "meta_object_name": "COSMOS 2251 DEB",
        "meta_object_id": "1993-036BTY",
        "meta_epoch": "2025-12-09T10:58:18.988608",
        "meta_mean_motion": 14.70683686,
        "meta_eccentricity": 0.00592583,
        "meta_inclination": 74.0426,
        "meta_ra_of_asc_node": 231.4464,
        "meta_arg_of_pericenter": 335.6145,
        "meta_mean_anomaly": 202.0339,
        "meta_ephemeris_type": 0,
        "meta_classification_type": "U",
        "meta_norad_cat_id": 39109,
        "meta_element_set_no": 999,
        "meta_rev_at_epoch": 65125,
        "meta_bstar": 0.00089315049,
        "meta_mean_motion_dot": 5.561e-05,
        "meta_mean_motion_ddot": 0,
        "tle_line1": "1 39109U 93036BTY 25343.45716422  .00005561  00000+0  89315-3 0  9996",
        "tle_line2": "2 39109  74.0426 231.4464 0059258 335.6145 202.0339 14.70683686651254"
      },
      "geometry": {
        "type": "Point",
        "coordinates": [
          -120.20736251456768,
          50.49427650341225
        ]
      }
    },
    {
      "type": "Feature",
      "properties": {
        "norad_id": 39110,
        "name": "COSMOS 2251 DEB",
        "group": "cosmos-2251-debris",
        "lat": -64.70575954248994,
        "lon": -86.62430378343778,
        "alt_km": 606.2412383366154,
        "timestamp": "2025-12-15T14:57:58.209735+00:00",
        "meta_object_name": "COSMOS 2251 DEB",
        "meta_object_id": "1993-036BTZ",
        "meta_epoch": "2025-12-03T13:14:13.055136",
        "meta_mean_motion": 14.72215365,
        "meta_eccentricity": 0.00964609,
        "meta_inclination": 73.9598,
        "meta_ra_of_asc_node": 79.4668,
        "meta_arg_of_pericenter": 313.6965,
        "meta_mean_anomaly": 59.6182,
        "meta_ephemeris_type": 0,
        "meta_classification_type": "U",
        "meta_norad_cat_id": 39110,
        "meta_element_set_no": 999,
        "meta_rev_at_epoch": 62349,
        "meta_bstar": 0.00066560445,
        "meta_mean_motion_dot": 4.484e-05,
        "meta_mean_motion_ddot": 0,
        "tle_line1": "1 39110U 93036BTZ 25337.55153999  .00004484  00000+0  66560-3 0  9996",
        "tle_line2": "2 39110  73.9598  79.4668 0096460 313.6965  59.6182 14.72215365623496"
      },
      "geometry": {
        "type": "Point",
        "coordinates": [
          -86.62430378343778,
          -64.70575954248994
        ]
      }
    },
    {
      "type": "Feature",
      "properties": {
        "norad_id": 39111,
        "name": "COSMOS 2251 DEB",
        "group": "cosmos-2251-debris",
        "lat": -69.75627835828845,
        "lon": -93.79962015531424,
        "alt_km": 531.2722841916657,
        "timestamp": "2025-12-15T14:57:58.209745+00:00",
        "meta_object_name": "COSMOS 2251 DEB",
        "meta_object_id": "1993-036BUA",
        "meta_epoch": "2025-12-01T22:58:55.551360",
        "meta_mean_motion": 15.11912111,
        "meta_eccentricity": 0.00109111,
        "meta_inclination": 74.0059,
        "meta_ra_of_asc_node": 63.5328,
        "meta_arg_of_pericenter": 39.1207,
        "meta_mean_anomaly": 321.0773,
        "meta_ephemeris_type": 0,
        "meta_classification_type": "U",
        "meta_norad_cat_id": 39111,
        "meta_element_set_no": 999,
        "meta_rev_at_epoch": 8982,
        "meta_bstar": 0.0056424119,
        "meta_mean_motion_dot": 0.00098096,
        "meta_mean_motion_ddot": 0,
        "tle_line1": "1 39111U 93036BUA 25335.95758740  .00098096  00000+0  56424-2 0  9993",
        "tle_line2": "2 39111  74.0059  63.5328 0010911  39.1207 321.0773 15.11912111 89826"
      },
      "geometry": {
        "type": "Point",
        "coordinates": [
          -93.79962015531424,
          -69.75627835828845
        ]
      }
    }
  ]
}